{
  "norad_id": 56416,
  "name": "STARLINK-6260",
  "history": [
    {
      "epoch": "2026-04-15T20:00:01.999008Z",
      "apogee_km": 518.7115883887864,
      "perigee_km": 515.1771696738952,
      "latitude_deg": 41.14412853338383,
      "longitude_deg": -105.95209976157456,
      "height_km": 521.4194554315986,
      "semi_major_axis_km": 6895.0813790313405,
      "eccentricity": 0.0002563,
      "inclination_deg": 42.9996,
      "raan_deg": 329.3283,
      "arg_perigee_deg": 260.6829,
      "mean_anomaly_deg": 173.429,
      "mean_motion_rev_day": 15.16329791
    },
    {
      "epoch": "2026-04-16T20:00:01.999008Z",
      "apogee_km": 514.5168066403503,
      "perigee_km": 512.7414876808416,
      "latitude_deg": 26.162065020392482,
      "longitude_deg": -32.80216970870946,
      "height_km": 514.3771120170579,
      "semi_major_axis_km": 6891.766147160596,
      "eccentricity": 0.0001288,
      "inclination_deg": 42.9995,
      "raan_deg": 323.7757,
      "arg_perigee_deg": 285.7819,
      "mean_anomaly_deg": 214.1103,
      "mean_motion_rev_day": 15.17424051
    },
    {
      "epoch": "2026-04-18T00:00:04.000320Z",
      "apogee_km": 511.163718452749,
      "perigee_km": 508.28803570156924,
      "latitude_deg": 27.093871620610333,
      "longitude_deg": 144.20952349962062,
      "height_km": 510.6763514363156,
      "semi_major_axis_km": 6887.862877077158,
      "eccentricity": 0.00020875,
      "inclination_deg": 42.9996,
      "raan_deg": 317.2858,
      "arg_perigee_deg": 277.4128,
      "mean_anomaly_deg": 124.2933,
      "mean_motion_rev_day": 15.18714093
    },
    {
      "epoch": "2026-04-18T20:00:01.000224Z",
      "apogee_km": 508.1072438318979,
      "perigee_km": 505.79110084352396,
      "latitude_deg": -41.75573312304665,
      "longitude_deg": 93.49030230078883,
      "height_km": 518.7856540855964,
      "semi_major_axis_km": 6885.08617233771,
      "eccentricity": 0.0001682,
      "inclination_deg": 42.9984,
      "raan_deg": 312.637,
      "arg_perigee_deg": 247.4401,
      "mean_anomaly_deg": 35.7914,
      "mean_motion_rev_day": 15.19632915
    },
    {
      "epoch": "2026-04-19T20:00:01.999008Z",
      "apogee_km": 505.11837979227676,
      "perigee_km": 501.96932263476174,
      "latitude_deg": 0.582459774865175,
      "longitude_deg": 159.7425642791551,
      "height_km": 503.30728173993504,
      "semi_major_axis_km": 6881.680851213519,
      "eccentricity": 0.0002288,
      "inclination_deg": 42.9992,
      "raan_deg": 307.062,
      "arg_perigee_deg": 268.6962,
      "mean_anomaly_deg": 92.2115,
      "mean_motion_rev_day": 15.20761014
    },
    {
      "epoch": "2026-04-20T14:00:03.000384Z",
      "apogee_km": 501.83286259538363,
      "perigee_km": 500.3752889962443,
      "latitude_deg": 18.790772583477843,
      "longitude_deg": 42.904941949457346,
      "height_km": 500.53599573178764,
      "semi_major_axis_km": 6879.241075795813,
      "eccentricity": 0.00010594,
      "inclination_deg": 43.0003,
      "raan_deg": 302.8647,
      "arg_perigee_deg": 255.8588,
      "mean_anomaly_deg": 256.056,
      "mean_motion_rev_day": 15.2157011
    },
    {
      "epoch": "2026-04-21T20:00:01.999008Z",
      "apogee_km": 497.423245967575,
      "perigee_km": 496.44423589406506,
      "latitude_deg": 8.014394045051775,
      "longitude_deg": -42.67528062471359,
      "height_km": 496.2017604200193,
      "semi_major_axis_km": 6875.07074093082,
      "eccentricity": 7.12e-05,
      "inclination_deg": 42.9993,
      "raan_deg": 295.8727,
      "arg_perigee_deg": 279.4313,
      "mean_anomaly_deg": 248.7664,
      "mean_motion_rev_day": 15.22954769
    },
    {
      "epoch": "2026-04-22T20:00:03.000384Z",
      "apogee_km": 494.7718799411359,
      "perigee_km": 492.56740437033295,
      "latitude_deg": -41.98825345118935,
      "longitude_deg": 33.07809546052481,
      "height_km": 505.4509668851117,
      "semi_major_axis_km": 6871.806642155734,
      "eccentricity": 0.0001604,
      "inclination_deg": 42.9989,
      "raan_deg": 290.2631,
      "arg_perigee_deg": 267.3756,
      "mean_anomaly_deg": 350.5455,
      "mean_motion_rev_day": 15.2404
    },
    {
      "epoch": "2026-04-23T14:00:04.000032Z",
      "apogee_km": 492.5938049994311,
      "perigee_km": 489.82669454027837,
      "latitude_deg": 35.38801321578304,
      "longitude_deg": -86.35017077684228,
      "height_km": 493.92529141550636,
      "semi_major_axis_km": 6869.347249769854,
      "eccentricity": 0.00020141,
      "inclination_deg": 42.9991,
      "raan_deg": 286.0441,
      "arg_perigee_deg": 269.1191,
      "mean_anomaly_deg": 148.6854,
      "mean_motion_rev_day": 15.24858538
    },
    {
      "epoch": "2026-04-24T20:00:01.999008Z",
      "apogee_km": 488.00961536110754,
      "perigee_km": 486.08324489061397,
      "latitude_deg": 43.147757830631775,
      "longitude_deg": -145.33373905454474,
      "height_km": 490.9852199369244,
      "semi_major_axis_km": 6865.1834301258605,
      "eccentricity": 0.0001403,
      "inclination_deg": 42.9991,
      "raan_deg": 279.0173,
      "arg_perigee_deg": 303.9702,
      "mean_anomaly_deg": 144.9376,
      "mean_motion_rev_day": 15.26246017
    },
    {
      "epoch": "2026-04-25T20:00:01.000224Z",
      "apogee_km": 486.7728678250951,
      "perigee_km": 484.7740970926043,
      "latitude_deg": -7.227710626244352,
      "longitude_deg": -52.701520897362954,
      "height_km": 486.590334940862,
      "semi_major_axis_km": 6863.910482458849,
      "eccentricity": 0.0001456,
      "inclination_deg": 42.9996,
      "raan_deg": 273.3758,
      "arg_perigee_deg": 270.1483,
      "mean_anomaly_deg": 280.3522,
      "mean_motion_rev_day": 15.26670612
    },
    {
      "epoch": "2026-04-26T22:00:00.999936Z",
      "apogee_km": 486.7459446032044,
      "perigee_km": 484.3538124522993,
      "latitude_deg": 21.12750048033272,
      "longitude_deg": 106.68683292748509,
      "height_km": 485.48889218691727,
      "semi_major_axis_km": 6863.686878527751,
      "eccentricity": 0.00017426,
      "inclination_deg": 42.9997,
      "raan_deg": 267.2682,
      "arg_perigee_deg": 277.2612,
      "mean_anomaly_deg": 114.5156,
      "mean_motion_rev_day": 15.26745216
    },
    {
      "epoch": "2026-04-27T20:00:03.000384Z",
      "apogee_km": 486.86474031500074,
      "perigee_km": 484.53927165977166,
      "latitude_deg": 23.80797345351618,
      "longitude_deg": 134.33685648088996,
      "height_km": 486.08721107016913,
      "semi_major_axis_km": 6863.8390059873855,
      "eccentricity": 0.0001694,
      "inclination_deg": 43.0001,
      "raan_deg": 262.0979,
      "arg_perigee_deg": 271.1317,
      "mean_anomaly_deg": 125.0064,
      "mean_motion_rev_day": 15.26694459
    },
    {
      "epoch": "2026-04-28T16:15:20.560320Z",
      "apogee_km": 486.76016303975393,
      "perigee_km": 484.351006942421,
      "latitude_deg": 8.978193737877196e-06,
      "longitude_deg": 156.85029706067124,
      "height_km": 485.23226753238674,
      "semi_major_axis_km": 6863.692584991087,
      "eccentricity": 0.0001755,
      "inclination_deg": 43.0007,
      "raan_deg": 257.3353,
      "arg_perigee_deg": 274.7846,
      "mean_anomaly_deg": 85.2805,
      "mean_motion_rev_day": 15.26743312
    },
    {
      "epoch": "2026-04-29T09:31:37.810560Z",
      "apogee_km": 486.62908664922907,
      "perigee_km": 484.5112211698188,
      "latitude_deg": 6.152628146458834e-05,
      "longitude_deg": -106.99033616378016,
      "height_km": 485.16507545545016,
      "semi_major_axis_km": 6863.707153909523,
      "eccentricity": 0.00015428,
      "inclination_deg": 43.0009,
      "raan_deg": 253.2758,
      "arg_perigee_deg": 279.9011,
      "mean_anomaly_deg": 80.1667,
      "mean_motion_rev_day": 15.26738451
    },
    {
      "epoch": "2026-04-30T15:21:35.244864Z",
      "apogee_km": 486.69989213949975,
      "perigee_km": 484.4439282948906,
      "latitude_deg": 9.339612597391574e-06,
      "longitude_deg": 157.28451624319374,
      "height_km": 485.2378199685315,
      "semi_major_axis_km": 6863.708910217195,
      "eccentricity": 0.00016434,
      "inclination_deg": 43.0004,
      "raan_deg": 246.2652,
      "arg_perigee_deg": 275.6538,
      "mean_anomaly_deg": 84.4126,
      "mean_motion_rev_day": 15.26737865
    },
    {
      "epoch": "2026-05-02T08:10:59.445984Z",
      "apogee_km": 486.5112893405676,
      "perigee_km": 484.5908294215533,
      "latitude_deg": 2.1903991561803592e-05,
      "longitude_deg": -106.33666765068759,
      "height_km": 485.18673513050317,
      "semi_major_axis_km": 6863.68805938106,
      "eccentricity": 0.0001399,
      "inclination_deg": 42.9998,
      "raan_deg": 236.6714,
      "arg_perigee_deg": 278.4493,
      "mean_anomaly_deg": 81.62,
      "mean_motion_rev_day": 15.26744822
    },
    {
      "epoch": "2026-05-03T17:09:22.499136Z",
      "apogee_km": 486.3066914040828,
      "perigee_km": 484.89138903258936,
      "latitude_deg": 5.717597825937928e-05,
      "longitude_deg": 109.96485566496418,
      "height_km": 485.35873872244997,
      "semi_major_axis_km": 6863.736040218336,
      "eccentricity": 0.0001031,
      "inclination_deg": 43.0001,
      "raan_deg": 228.9231,
      "arg_perigee_deg": 271.3587,
      "mean_anomaly_deg": 88.7147,
      "mean_motion_rev_day": 15.26728813
    },
    {
      "epoch": "2026-05-04T13:34:03.800928Z",
      "apogee_km": 486.55330771412537,
      "perigee_km": 484.54911075702967,
      "latitude_deg": -3.22577262244003e-05,
      "longitude_deg": 158.15729721357786,
      "height_km": 485.193586978878,
      "semi_major_axis_km": 6863.688209235577,
      "eccentricity": 0.000146,
      "inclination_deg": 43.0001,
      "raan_deg": 224.126,
      "arg_perigee_deg": 277.7122,
      "mean_anomaly_deg": 82.3563,
      "mean_motion_rev_day": 15.26744772
    }
  ]
}